HST                     
1 20580U 90037B   22047.24837795  .00001697  00000+0  90773-4 0  9996
2 20580  28.4691 251.5876 0002586 166.0033 346.9085 15.10041675547877
POLAR                   
1 23802U 96013A   22045.57130542  .00000326  00000+0  00000+0 0  9993
2 23802  78.7399 242.8510 5865458 263.0568  30.9128  1.29846841124297
SWAS                    
1 25560U 98071A   22047.37093734  .00001028  00000+0  10379-3 0  9997
2 25560  69.8987 291.1595 0006740 167.4755 192.6570 14.94376048259935
CXO                     
1 25867U 99040B   22049.05123833  .00000841  00000+0  00000+0 0  9993
2 25867  48.6839 243.0898 8677108 230.0953   0.5159  0.37813077 22506
XMM-NEWTON              
1 25989U 99066A   22046.83722732  .00000276  00000+0  00000+0 0  9994
2 25989  70.3748 307.0483 6216748  88.0551   0.2548  0.50138592 15075
TERRA                   
1 25994U 99068A   22047.56463265  .00000203  00000+0  55045-4 0  9990
2 25994  98.1502 122.1910 0001186  94.4141  42.5913 14.57146781178892
CLUSTER II-FM7 (SAMBA)  
1 26410U 00041A   22048.99622856 -.00000029  00000+0  00000+0 0  9991
2 26410 133.6716 346.6300 5387827 197.1075 359.4009  0.44188181 13283
CLUSTER II-FM6 (SALSA)  
1 26411U 00041B   22048.98665559 -.00000023  00000+0  00000+0 0  9992
2 26411 135.3311 349.4337 6995106 201.6545 359.2460  0.44212634 13329
CLUSTER II-FM5 (RUMBA)  
1 26463U 00045A   22048.99100579  .00000062  00000+0  00000+0 0  9992
2 26463 138.9204 349.6517 6521356 202.3188 359.3234  0.44213484 13213
CLUSTER II-FM8 (TANGO)  
1 26464U 00045B   22048.99503014 -.00000028  00000+0  00000+0 0  9997
2 26464 133.6784 346.6256 5383971 197.1117 359.3880  0.44219826 13298
ODIN                    
1 26702U 01007A   22047.54366518  .00001766  00000+0  11530-3 0  9990
2 26702  97.5276  64.5255 0010153 353.3731   6.7362 15.09086882148034
TIMED                   
1 26998U 01055B   22047.60585410  .00000572  00000+0  65657-4 0  9995
2 26998  74.0732 160.3592 0000634 317.9534  42.1598 14.88466320 95027
RHESSI                  
1 27370U 02004A   22047.42209488  .00012857  00000+0  33245-3 0  9999
2 27370  38.0335  34.5839 0012191 277.1206  82.8180 15.38501065107935
INTEGRAL                
1 27540U 02048A   22044.43571172 -.00000081  00000+0  00000+0 0  9992
2 27540  71.6504  67.3733 8949564 299.7040 284.1065  0.37581263 20674
CORIOLIS                
1 27640U 03001A   22047.54703494  .00000037  00000+0  38386-4 0  9995
2 27640  98.7207  58.4561 0015249  85.9245  23.2330 14.19103309989827
SORCE                   
1 27651U 03004A   22047.39570114  .00000826  00000+0  98852-4 0  9994
2 27651  39.9944 173.2472 0023725 339.4168  20.5664 14.89567226 35012
MOST                    
1 27843U 03031D   22047.56859759  .00000033  00000+0  35667-4 0  9996
2 27843  98.7099  56.9372 0010802 132.7704 227.4383 14.20661943966089
SCISAT 1                
1 27858U 03036A   22047.44512874  .00000272  00000+0  43210-4 0  9996
2 27858  73.9319  62.9860 0006791 137.9500 222.2197 14.77438984997558
SWIFT                   
1 28485U 04047A   22047.46415372  .00002672  00000+0  14945-3 0  9991
2 28485  20.5577  79.1880 0010702 203.4614 156.5332 15.05588345945285
CLOUDSAT                
1 29107U 06016A   22047.54243519  .00000180  00000+0  44817-4 0  9996
2 29107  98.3132   6.6881 0002517 346.8327  13.2808 14.62789433841354
CALIPSO                 
1 29108U 06016B   22047.53629340  .00000562  00000+0  11980-3 0  9994
2 29108  98.3100   6.3046 0001371  81.7448 278.3909 14.62720532841346
HINODE (SOLAR-B)        
1 29479U 06041A   22047.52994199  .00000281  00000+0  61772-4 0  9992
2 29479  98.1281  64.1943 0017406 245.0986 114.8408 14.64690524823056
SJ-6C                   
1 29505U 06046A   22047.47995391  .00002380  00000+0  21979-3 0  9992
2 29505  97.7878  69.2771 0005407 148.4077 211.7480 14.95553557834612
SJ-6D                   
1 29506U 06046B   22047.44440787  .00000044  00000+0  95366-5 0  9992
2 29506  97.8070  69.4476 0000629 240.8545 119.2623 14.93750312834077
AGILE                   
1 31135U 07013A   22047.37028764  .00007355  00000+0  17245-3 0  9997
2 31135   2.4679 105.0052 0010790 345.9149  14.0604 15.35415395458292
AIM                     
1 31304U 07015A   22047.33037964  .00003972  00000+0  21199-3 0  9999
2 31304  97.8596 322.2004 0006700  76.3535 283.8442 15.15743497812831
FGRST (GLAST)           
1 33053U 08029A   22047.32955053  .00001324  00000+0  58454-4 0  9999
2 33053  25.5823 272.8625 0011950 215.8851 144.0882 15.11812652755342
IBEX                    
1 33401U 08051A   22019.38888889 -.00001658  00000+0  00000+0 0  9998
2 33401  44.9273  44.3145 5093472  45.4837   3.9013  0.10593383  5344
WISE                    
1 36119U 09071A   22047.55506950  .00003895  00000+0  12834-3 0  9992
2 36119  97.2565  84.4200 0003338  46.5600 313.5919 15.32047701676989
SDO                     
1 36395U 10005A   22047.17549282 -.00000075  00000+0  00000+0 0  9996
2 36395  31.4190 111.1952 0001626 233.6774 122.1855  1.00276436 44194
CRYOSAT 2               
1 36508U 10013A   22047.57543020  .00000089  00000+0  21360-4 0  9990
2 36508  92.0230 254.8025 0003807 316.7921  43.2987 14.51906355628595
X-SAT                   
1 37389U 11015C   22047.61751280  .00000037  00000+0  33876-4 0  9993
2 37389  98.3526  86.9236 0013155 310.1167  49.8861 14.24403037563001
GCOM-W1 (SHIZUKU)       
1 38337U 12025A   22047.59499762  .00000264  00000+0  68680-4 0  9993
2 38337  98.2073 349.9816 0000731  94.1237  78.8742 14.57148706518713
NUSTAR                  
1 38358U 12031A   22047.09367739  .00001871  00000+0  12038-3 0  9996
2 38358   6.0257 166.4172 0011482  23.8678 336.1982 14.88869236526736
NEOSSAT                 
1 39089U 13009D   22047.52248067  .00000088  00000+0  46204-4 0  9996
2 39089  98.4276 246.8003 0010184 278.5402  81.4630 14.34617384469879
BRITE-AUSTRIA           
1 39091U 13009F   22047.53850605  .00000096  00000+0  48362-4 0  9993
2 39091  98.4118 247.9243 0009356 279.6908  80.3221 14.35229646470087
IRIS                    
1 39197U 13033A   22047.49325929  .00000544  00000+0  80221-4 0  9996
2 39197  97.9669 234.4248 0028646  61.7101 298.6996 14.79034538466094
HISAKI (SPRINT-A)       
1 39253U 13049A   22047.49802226  .00000162  00000+0  12991-3 0  9990
2 39253  29.7214 339.4153 0137336 157.0267 203.6518 13.55260295416686
CASSIOPE                
1 39265U 13055A   22047.50728767  .00012734  00000+0  35003-3 0  9996
2 39265  80.9659  35.2995 0634127 315.9992  39.2325 14.35674687434969
STSAT-3                 
1 39422U 13066G   22047.49808920  .00000729  00000+0  80453-4 0  9992
2 39422  97.4716  59.1803 0021978 328.7115  31.2802 14.90155367447828
SWARM B                 
1 39451U 13067A   22047.55757324  .00001476  00000+0  62310-4 0  9995
2 39451  87.7469  97.5528 0003847  79.9362 280.2318 15.22452716442558
SWARM A                 
1 39452U 13067B   22047.54342922  .00004964  00000+0  97087-4 0  9993
2 39452  87.3557 268.6457 0003223  99.1048 261.0575 15.47134874463259
SWARM C                 
1 39453U 13067C   22047.54334979  .00004963  00000+0  97071-4 0  9999
2 39453  87.3409 268.3631 0003219  99.1864 260.9759 15.47134529463213
BRITE-CA1 (TORONTO)     
1 40020U 14033L   22047.41324341  .00000366  00000+0  70677-4 0  9999
2 40020  97.7607 212.6543 0085812 289.8782  69.3191 14.66860224409916
OCO 2                   
1 40059U 14035A   22047.55876206  .00000224  00000+0  59693-4 0  9998
2 40059  98.1909 350.7021 0001411  86.5271 273.6089 14.57111474405728
BRITE-PL2 (HEWELIUSZ)   
1 40119U 14049B   22047.52758334  .00000661  00000+0  84118-4 0  9993
2 40119  97.8828 144.4553 0015953 278.5743  81.3663 14.84846229406065
RESURS P2               
1 40360U 14087A   22047.50868986  .00004762  00000+0  14105-3 0  9990
2 40360  97.2142 134.9270 0009996 154.7326 332.2502 15.35293772399694
MMS 1                   
1 40482U 15011A   22035.39583333 -.00001917  00000+0  00000+0 0  9992
2 40482  33.3441 111.0118 8551655  44.2353 166.2437  0.28444681 12927
MMS 2                   
1 40483U 15011B   22035.39583333 -.00001917  00000+0  00000+0 0  9993
2 40483  33.3423 111.0150 8551071  44.2411 166.2162  0.28444626 12981
MMS 3                   
1 40484U 15011C   22035.39583333 -.00001918  00000+0  00000+0 0  9995
2 40484  33.3466 111.0642 8555299  44.2285 166.2535  0.28449204 12666
MMS 4                   
1 40485U 15011D   22021.20833333 -.00001550  00000+0  00000+0 0  9991
2 40485  33.3349 111.3679 8526881  43.4204 156.2432  0.28428872 12839
ASTROSAT                
1 40930U 15052A   22047.09290266  .00001068  00000+0  60465-4 0  9997
2 40930   5.9974 323.6489 0009203 239.9926 119.9288 14.76493210345187
DAMPE                   
1 41173U 15078A   22047.56360510  .00000837  00000+0  37228-4 0  9991
2 41173  97.3683  40.2566 0011829 266.3615 236.5919 15.24198568343168
PISAT                   
1 41784U 16059B   22047.56198895  .00000377  00000+0  80711-4 0  9998
2 41784  97.9343  95.5218 0031723 189.3042 170.7578 14.63753203288001
HXMT (HUIYAN)           
1 42758U 17034A   22047.56469034  .00002666  00000+0  17571-3 0  9996
2 42758  43.0189 292.7961 0009329 249.2708 184.1928 15.09725885257900
FLYING LAPTOP           
1 42831U 17042G   22047.51392713  .00001203  00000+0  12505-3 0  9999
2 42831  97.4390 268.9013 0015355  56.2145 304.0522 14.91522475250062
PICSAT                  
1 43132U 18004X   22047.47198470  .00007397  00000+0  27252-3 0  9997
2 43132  97.3849 124.7737 0009700  71.0846 289.1444 15.28074692227915
ZHANGZHENG-1 (CSES)     
1 43194U 18015C   22047.54860940  .00007554  00000+0  34252-3 0  9996
2 43194  97.5032 178.6187 0012883 146.6792 343.8006 15.21049246224246
ICON                    
1 44628U 19068A   22047.21083836  .00001695  00000+0  14216-3 0  9991
2 44628  26.9905  20.6921 0019023 107.3368 252.9272 14.92321078128434
SALSAT                  
1 46495U 20068K   22047.55755868  .00001688  00000+0  12679-3 0  9998
2 46495  97.7198 348.9717 0015788 332.9006  27.1393 15.03898543 76017
IXPE                    
1 49954U 21121A   22046.02635040  .00002126  00000+0  13479-3 0  9999
2 49954   0.2285 201.0830 0011444 295.4115 223.5954 14.90878895 10128
